,id_school,name_school,latitude_school,longitude_school,type_technology,latitude_service_point,longitude_service_point,tower_range_meters,distance_km_school_service_point
0,37c41673-46d6-3fc0-9986-3c4fc72b79fa,EP MUSHUBI,-1.6318,29.7998,ADSL,-1.544,29.7467,,11.4096
1,37c41673-46d6-3fc0-9986-3c4fc72b79fa,EP MUSHUBI,-1.6318,29.7998,cellular_tower,-1.6348,29.801,7571.0,0.3541
2,37c41673-46d6-3fc0-9986-3c4fc72b79fa,EP MUSHUBI,-1.6318,29.7998,cellular_tower,-1.6349,29.7931,8414.0,0.8193
3,37c41673-46d6-3fc0-9986-3c4fc72b79fa,EP MUSHUBI,-1.6318,29.7998,cellular_tower,-1.6429,29.7986,5336.0,1.2364
4,37c41673-46d6-3fc0-9986-3c4fc72b79fa,EP MUSHUBI,-1.6318,29.7998,cellular_tower,-1.6316,29.7884,8822.0,1.2684
5,37c41673-46d6-3fc0-9986-3c4fc72b79fa,EP MUSHUBI,-1.6318,29.7998,cellular_tower,-1.6438,29.7947,7090.0,1.4453
6,3813d74e-22f6-3b0b-81c8-b57ec4b03700,EP KARIYERI,-1.6215,29.4268,EVDSL,-1.5339,29.4327,,9.7619
7,3813d74e-22f6-3b0b-81c8-b57ec4b03700,EP KARIYERI,-1.6215,29.4268,FTTC,-1.6156,29.5198,,10.3563
8,3813d74e-22f6-3b0b-81c8-b57ec4b03700,EP KARIYERI,-1.6215,29.4268,ADSL,-1.7524,29.4441,,14.677
9,3813d74e-22f6-3b0b-81c8-b57ec4b03700,EP KARIYERI,-1.6215,29.4268,cellular_tower,-1.6223,29.4286,6928.0,0.2157
10,3813d74e-22f6-3b0b-81c8-b57ec4b03700,EP KARIYERI,-1.6215,29.4268,cellular_tower,-1.6239,29.4265,1000.0,0.2665
11,3813d74e-22f6-3b0b-81c8-b57ec4b03700,EP KARIYERI,-1.6215,29.4268,cellular_tower,-1.6239,29.4265,1000.0,0.2665
12,3813d74e-22f6-3b0b-81c8-b57ec4b03700,EP KARIYERI,-1.6215,29.4268,cellular_tower,-1.6237,29.4255,1000.0,0.2829
13,3813d74e-22f6-3b0b-81c8-b57ec4b03700,EP KARIYERI,-1.6215,29.4268,cellular_tower,-1.6214,29.4296,1000.0,0.3092
14,390c167f-5271-393c-8fce-a21633b77126,EP MATABA SUD,-2.1478,29.9396,FTTH,-2.1349,29.8361,,11.5951
15,390c167f-5271-393c-8fce-a21633b77126,EP MATABA SUD,-2.1478,29.9396,cellular_tower,-2.1975,29.9109,1122.0,6.3805
16,390c167f-5271-393c-8fce-a21633b77126,EP MATABA SUD,-2.1478,29.9396,cellular_tower,-2.1975,29.9109,1122.0,6.3805
17,390c167f-5271-393c-8fce-a21633b77126,EP MATABA SUD,-2.1478,29.9396,cellular_tower,-2.1975,29.9109,1122.0,6.3805
18,390c167f-5271-393c-8fce-a21633b77126,EP MATABA SUD,-2.1478,29.9396,cellular_tower,-2.1975,29.9109,1122.0,6.3805
19,390c167f-5271-393c-8fce-a21633b77126,EP MATABA SUD,-2.1478,29.9396,cellular_tower,-2.1917,29.9026,1000.0,6.3821
20,3a3a9305-317f-3343-8f97-abf5ba2743d1,MWEYA,-2.2971,29.2442,FTTH,-2.3438,29.2427,,5.1898
21,3a3a9305-317f-3343-8f97-abf5ba2743d1,MWEYA,-2.2971,29.2442,FTTC,-2.2373,29.2312,,6.8048
22,3a3a9305-317f-3343-8f97-abf5ba2743d1,MWEYA,-2.2971,29.2442,ADSL,-2.287,29.1669,,8.6599
23,3a3a9305-317f-3343-8f97-abf5ba2743d1,MWEYA,-2.2971,29.2442,FTTC,-2.4008,29.1733,,13.9627
24,3a3a9305-317f-3343-8f97-abf5ba2743d1,MWEYA,-2.2971,29.2442,cellular_tower,-2.2698,29.2032,1000.0,5.4785
25,3a3a9305-317f-3343-8f97-abf5ba2743d1,MWEYA,-2.2971,29.2442,cellular_tower,-2.2613,29.2093,3482.0,5.562
26,3a3a9305-317f-3343-8f97-abf5ba2743d1,MWEYA,-2.2971,29.2442,cellular_tower,-2.2714,29.2012,1000.0,5.5713
27,3a3a9305-317f-3343-8f97-abf5ba2743d1,MWEYA,-2.2971,29.2442,cellular_tower,-2.2714,29.2012,1000.0,5.5713
28,3a3a9305-317f-3343-8f97-abf5ba2743d1,MWEYA,-2.2971,29.2442,cellular_tower,-2.2714,29.2012,1000.0,5.5713
29,3a98b154-5ca7-30c3-81f8-55323bc4513c,ECD KIBIRIZI,-2.4429,29.562,EVDSL,-2.4705,29.5177,,5.8027
30,3a98b154-5ca7-30c3-81f8-55323bc4513c,ECD KIBIRIZI,-2.4429,29.562,EVDSL,-2.5006,29.5734,,6.5437
31,3a98b154-5ca7-30c3-81f8-55323bc4513c,ECD KIBIRIZI,-2.4429,29.562,FTTC,-2.3312,29.5658,,12.4285
32,3a98b154-5ca7-30c3-81f8-55323bc4513c,ECD KIBIRIZI,-2.4429,29.562,FTTH,-2.3854,29.6658,,13.1858
33,3a98b154-5ca7-30c3-81f8-55323bc4513c,ECD KIBIRIZI,-2.4429,29.562,cellular_tower,-2.4689,29.5751,1000.0,3.2424
34,3a98b154-5ca7-30c3-81f8-55323bc4513c,ECD KIBIRIZI,-2.4429,29.562,cellular_tower,-2.4719,29.5749,2408.0,3.5344
35,3a98b154-5ca7-30c3-81f8-55323bc4513c,ECD KIBIRIZI,-2.4429,29.562,cellular_tower,-2.4704,29.5779,1000.0,3.5371
36,3a98b154-5ca7-30c3-81f8-55323bc4513c,ECD KIBIRIZI,-2.4429,29.562,cellular_tower,-2.474,29.5708,2381.0,3.5991
37,3a98b154-5ca7-30c3-81f8-55323bc4513c,ECD KIBIRIZI,-2.4429,29.562,cellular_tower,-2.4751,29.5705,1292.0,3.7083
38,3aea9f2f-d75d-309f-ae1c-2ab123e091d6,EP NYARUNAZI,-1.9394,30.5673,EVDSL,-1.9849,30.6206,,7.7952
39,3aea9f2f-d75d-309f-ae1c-2ab123e091d6,EP NYARUNAZI,-1.9394,30.5673,cellular_tower,-1.9614,30.538,1000.0,4.0745
40,3aea9f2f-d75d-309f-ae1c-2ab123e091d6,EP NYARUNAZI,-1.9394,30.5673,cellular_tower,-1.9668,30.5422,1585.0,4.1328
41,3aea9f2f-d75d-309f-ae1c-2ab123e091d6,EP NYARUNAZI,-1.9394,30.5673,cellular_tower,-1.9757,30.5533,1000.0,4.3279
42,3aea9f2f-d75d-309f-ae1c-2ab123e091d6,EP NYARUNAZI,-1.9394,30.5673,cellular_tower,-1.9678,30.5405,7763.0,4.3428
43,3aea9f2f-d75d-309f-ae1c-2ab123e091d6,EP NYARUNAZI,-1.9394,30.5673,cellular_tower,-1.9579,30.531,1000.0,4.5299
44,3b1ac2e4-7d5c-37b0-bb03-528cf8a6daec,BUSHENYI PS,-1.8033,30.3675,EVDSL,-1.8361,30.3404,,4.7246
45,3b1ac2e4-7d5c-37b0-bb03-528cf8a6daec,BUSHENYI PS,-1.8033,30.3675,ADSL,-1.7432,30.3574,,6.7823
46,3b1ac2e4-7d5c-37b0-bb03-528cf8a6daec,BUSHENYI PS,-1.8033,30.3675,ADSL,-1.7227,30.4191,,10.6443
47,3b1ac2e4-7d5c-37b0-bb03-528cf8a6daec,BUSHENYI PS,-1.8033,30.3675,cellular_tower,-1.7835,30.3902,19304.0,3.3509
48,3b1ac2e4-7d5c-37b0-bb03-528cf8a6daec,BUSHENYI PS,-1.8033,30.3675,cellular_tower,-1.7706,30.3825,1000.0,4.0034
49,3b1ac2e4-7d5c-37b0-bb03-528cf8a6daec,BUSHENYI PS,-1.8033,30.3675,cellular_tower,-1.772,30.3858,1000.0,4.0343
50,3b1ac2e4-7d5c-37b0-bb03-528cf8a6daec,BUSHENYI PS,-1.8033,30.3675,cellular_tower,-1.775,30.3905,1002.0,4.0571
51,3b1ac2e4-7d5c-37b0-bb03-528cf8a6daec,BUSHENYI PS,-1.8033,30.3675,cellular_tower,-1.7765,30.3933,1000.0,4.1382
52,3b79cdf9-11aa-323f-bb39-96d87af0a43c,EP KAMOMBO,-2.2534,30.8043,FTTH,-2.2775,30.7708,,4.5755
53,3b79cdf9-11aa-323f-bb39-96d87af0a43c,EP KAMOMBO,-2.2534,30.8043,EVDSL,-2.2005,30.8879,,10.9977
54,3b79cdf9-11aa-323f-bb39-96d87af0a43c,EP KAMOMBO,-2.2534,30.8043,EVDSL,-2.3456,30.8674,,12.4162
55,3b79cdf9-11aa-323f-bb39-96d87af0a43c,EP KAMOMBO,-2.2534,30.8043,FTTC,-2.3279,30.7116,,13.2097
56,3b79cdf9-11aa-323f-bb39-96d87af0a43c,EP KAMOMBO,-2.2534,30.8043,cellular_tower,-2.2816,30.7374,1000.0,8.0636
57,3b79cdf9-11aa-323f-bb39-96d87af0a43c,EP KAMOMBO,-2.2534,30.8043,cellular_tower,-2.2867,30.7372,1267.0,8.3202
58,3b79cdf9-11aa-323f-bb39-96d87af0a43c,EP KAMOMBO,-2.2534,30.8043,cellular_tower,-2.3003,30.744,2187.0,8.4857
59,3b79cdf9-11aa-323f-bb39-96d87af0a43c,EP KAMOMBO,-2.2534,30.8043,cellular_tower,-2.2897,30.7368,2139.0,8.5128
60,3b79cdf9-11aa-323f-bb39-96d87af0a43c,EP KAMOMBO,-2.2534,30.8043,cellular_tower,-2.2921,30.7369,4324.0,8.6328
61,3c3db764-3cdc-388f-9242-95a45b6ffab4,EP MUGOMBWA,-2.6758,29.8524,EVDSL,-2.6266,29.8741,,5.9777
62,3c3db764-3cdc-388f-9242-95a45b6ffab4,EP MUGOMBWA,-2.6758,29.8524,ADSL,-2.6563,29.904,,6.1327
63,3c3db764-3cdc-388f-9242-95a45b6ffab4,EP MUGOMBWA,-2.6758,29.8524,FTTH,-2.7076,29.9441,,10.7852
64,3c3db764-3cdc-388f-9242-95a45b6ffab4,EP MUGOMBWA,-2.6758,29.8524,cellular_tower,-2.624,29.7319,3047.0,14.5717
65,3c3db764-3cdc-388f-9242-95a45b6ffab4,EP MUGOMBWA,-2.6758,29.8524,cellular_tower,-2.5803,29.7584,1000.0,14.8941
66,3c3db764-3cdc-388f-9242-95a45b6ffab4,EP MUGOMBWA,-2.6758,29.8524,cellular_tower,-2.5488,29.8041,6423.0,15.1093
67,3c3db764-3cdc-388f-9242-95a45b6ffab4,EP MUGOMBWA,-2.6758,29.8524,cellular_tower,-2.5827,29.7531,3429.0,15.1286
68,3c3db764-3cdc-388f-9242-95a45b6ffab4,EP MUGOMBWA,-2.6758,29.8524,cellular_tower,-2.5797,29.7529,1719.0,15.3749
69,3c42db67-d0c1-3836-8050-fb43fa326b1d,E.P KIMINA,-2.5396,29.483,EVDSL,-2.5327,29.4246,,6.5363
70,3c42db67-d0c1-3836-8050-fb43fa326b1d,E.P KIMINA,-2.5396,29.483,EVDSL,-2.4705,29.5177,,8.5956
71,3c42db67-d0c1-3836-8050-fb43fa326b1d,E.P KIMINA,-2.5396,29.483,EVDSL,-2.5006,29.5734,,10.9421
72,3c42db67-d0c1-3836-8050-fb43fa326b1d,E.P KIMINA,-2.5396,29.483,FTTH,-2.6242,29.4323,,10.9684
73,3c42db67-d0c1-3836-8050-fb43fa326b1d,E.P KIMINA,-2.5396,29.483,ADSL,-2.5934,29.5817,,12.4839
74,3c42db67-d0c1-3836-8050-fb43fa326b1d,E.P KIMINA,-2.5396,29.483,cellular_tower,-2.5144,29.4647,1000.0,3.4656
75,3c42db67-d0c1-3836-8050-fb43fa326b1d,E.P KIMINA,-2.5396,29.483,cellular_tower,-2.5144,29.4647,1000.0,3.4656
76,3c42db67-d0c1-3836-8050-fb43fa326b1d,E.P KIMINA,-2.5396,29.483,cellular_tower,-2.5134,29.466,4716.0,3.4755
77,3c42db67-d0c1-3836-8050-fb43fa326b1d,E.P KIMINA,-2.5396,29.483,cellular_tower,-2.5077,29.4843,4319.0,3.5521
78,3c42db67-d0c1-3836-8050-fb43fa326b1d,E.P KIMINA,-2.5396,29.483,cellular_tower,-2.5162,29.4608,1000.0,3.5889
79,3ca08bd8-a9c6-3e58-9cfc-02b34f33595c,GS KANOMBE LL,-1.2544,30.4786,FTTH,-1.2463,30.5848,,11.8407
80,3ca08bd8-a9c6-3e58-9cfc-02b34f33595c,GS KANOMBE LL,-1.2544,30.4786,FTTH,-1.2942,30.3607,,13.8346
81,3ca08bd8-a9c6-3e58-9cfc-02b34f33595c,GS KANOMBE LL,-1.2544,30.4786,cellular_tower,-1.2441,30.4117,4096.0,7.5205
82,3ca08bd8-a9c6-3e58-9cfc-02b34f33595c,GS KANOMBE LL,-1.2544,30.4786,cellular_tower,-1.2427,30.4115,5615.0,7.5675
83,3ca08bd8-a9c6-3e58-9cfc-02b34f33595c,GS KANOMBE LL,-1.2544,30.4786,cellular_tower,-1.2385,30.412,7883.0,7.6073
84,3ca08bd8-a9c6-3e58-9cfc-02b34f33595c,GS KANOMBE LL,-1.2544,30.4786,cellular_tower,-1.269,30.4117,1000.0,7.6098
85,3ca08bd8-a9c6-3e58-9cfc-02b34f33595c,GS KANOMBE LL,-1.2544,30.4786,cellular_tower,-1.2652,30.4099,16752.0,7.7283
86,3cb53b73-b3ec-33f2-ba15-f176a16479f3,GS NYABUBARE,-2.2428,29.3678,,,,,17.8745
87,3cb53b73-b3ec-33f2-ba15-f176a16479f3,GS NYABUBARE,-2.2428,29.3678,cellular_tower,-2.1948,29.2797,1046.0,11.1514
88,3cb53b73-b3ec-33f2-ba15-f176a16479f3,GS NYABUBARE,-2.2428,29.3678,cellular_tower,-2.1948,29.2797,1046.0,11.1514
89,3cb53b73-b3ec-33f2-ba15-f176a16479f3,GS NYABUBARE,-2.2428,29.3678,cellular_tower,-2.1974,29.2723,1891.0,11.7531
90,3cb53b73-b3ec-33f2-ba15-f176a16479f3,GS NYABUBARE,-2.2428,29.3678,cellular_tower,-2.1974,29.2723,1891.0,11.7531
91,3cb53b73-b3ec-33f2-ba15-f176a16479f3,GS NYABUBARE,-2.2428,29.3678,cellular_tower,-2.1974,29.2723,1891.0,11.7531
92,3cc8a03c-fc24-376f-9500-3285c072ea70,EP GITARAMUKA,-2.201,30.146,EVDSL,-2.2442,30.0976,,7.2085
93,3cc8a03c-fc24-376f-9500-3285c072ea70,EP GITARAMUKA,-2.201,30.146,FTTH,-2.1114,30.1695,,10.3034
94,3cc8a03c-fc24-376f-9500-3285c072ea70,EP GITARAMUKA,-2.201,30.146,EVDSL,-2.0894,30.1204,,12.7355
95,3cc8a03c-fc24-376f-9500-3285c072ea70,EP GITARAMUKA,-2.201,30.146,cellular_tower,-2.2045,30.1475,5698.0,0.4234
96,3cc8a03c-fc24-376f-9500-3285c072ea70,EP GITARAMUKA,-2.201,30.146,cellular_tower,-2.2037,30.1419,1000.0,0.5456
97,3cc8a03c-fc24-376f-9500-3285c072ea70,EP GITARAMUKA,-2.201,30.146,cellular_tower,-2.207,30.1456,1000.0,0.6687
98,3cc8a03c-fc24-376f-9500-3285c072ea70,EP GITARAMUKA,-2.201,30.146,cellular_tower,-2.2116,30.1433,2331.0,1.2162
99,3cc8a03c-fc24-376f-9500-3285c072ea70,EP GITARAMUKA,-2.201,30.146,cellular_tower,-2.2135,30.1507,2740.0,1.4848
100,3e40d1b0-e6c1-3b6d-926b-27387114e6a4,E.P KARIYERI,-1.9495,30.0639,cellular_tower,-1.9524,30.0638,3517.0,0.3218
101,3e40d1b0-e6c1-3b6d-926b-27387114e6a4,E.P KARIYERI,-1.9495,30.0639,cellular_tower,-1.9445,30.0652,3235.0,0.5759
102,3e40d1b0-e6c1-3b6d-926b-27387114e6a4,E.P KARIYERI,-1.9495,30.0639,cellular_tower,-1.9496,30.0586,1000.0,0.5863
103,3e40d1b0-e6c1-3b6d-926b-27387114e6a4,E.P KARIYERI,-1.9495,30.0639,cellular_tower,-1.9516,30.0688,2938.0,0.5947
104,3e40d1b0-e6c1-3b6d-926b-27387114e6a4,E.P KARIYERI,-1.9495,30.0639,cellular_tower,-1.9545,30.0658,2817.0,0.595
105,3e45a17d-8549-3c74-99fc-b65b85984316,EP MWANZA,-1.7268,29.7586,cellular_tower,-1.6476,29.7899,3876.0,9.4736
106,3e45a17d-8549-3c74-99fc-b65b85984316,EP MWANZA,-1.7268,29.7586,cellular_tower,-1.6465,29.7873,1000.0,9.4862
107,3e45a17d-8549-3c74-99fc-b65b85984316,EP MWANZA,-1.7268,29.7586,cellular_tower,-1.65,29.7984,4822.0,9.6226
108,3e45a17d-8549-3c74-99fc-b65b85984316,EP MWANZA,-1.7268,29.7586,cellular_tower,-1.6492,29.7977,2989.0,9.6664
109,3e45a17d-8549-3c74-99fc-b65b85984316,EP MWANZA,-1.7268,29.7586,cellular_tower,-1.6431,29.7861,4425.0,9.8005
110,3f43655c-fe96-3da2-9ae4-d3a85baf4cae,EP KABUBA,-1.91,29.7007,ADSL,-1.8859,29.6355,,7.7229
111,3f43655c-fe96-3da2-9ae4-d3a85baf4cae,EP KABUBA,-1.91,29.7007,FTTH,-2.0112,29.7667,,13.4392
112,3f43655c-fe96-3da2-9ae4-d3a85baf4cae,EP KABUBA,-1.91,29.7007,cellular_tower,-2.0659,29.6993,1000.0,17.3367
113,3f43655c-fe96-3da2-9ae4-d3a85baf4cae,EP KABUBA,-1.91,29.7007,cellular_tower,-2.0659,29.6993,1000.0,17.3367
114,3f43655c-fe96-3da2-9ae4-d3a85baf4cae,EP KABUBA,-1.91,29.7007,cellular_tower,-2.0674,29.7025,1000.0,17.504
115,3f43655c-fe96-3da2-9ae4-d3a85baf4cae,EP KABUBA,-1.91,29.7007,cellular_tower,-2.0648,29.7304,1000.0,17.5276
116,3f43655c-fe96-3da2-9ae4-d3a85baf4cae,EP KABUBA,-1.91,29.7007,cellular_tower,-2.0648,29.7304,1000.0,17.5276
117,3f65c4df-07dd-3f3c-b8ae-a66d5374b632,EP BUMBOGO,-2.0752,29.8874,FTTH,-2.1349,29.8361,,8.7521
118,3f65c4df-07dd-3f3c-b8ae-a66d5374b632,EP BUMBOGO,-2.0752,29.8874,FTTH,-1.9977,29.8567,,9.27
119,3f65c4df-07dd-3f3c-b8ae-a66d5374b632,EP BUMBOGO,-2.0752,29.8874,cellular_tower,-2.0236,29.8661,9452.0,6.2067
120,3f65c4df-07dd-3f3c-b8ae-a66d5374b632,EP BUMBOGO,-2.0752,29.8874,cellular_tower,-2.0236,29.8651,2074.0,6.2499
121,3f65c4df-07dd-3f3c-b8ae-a66d5374b632,EP BUMBOGO,-2.0752,29.8874,cellular_tower,-2.0214,29.8697,4295.0,6.2973
122,3f65c4df-07dd-3f3c-b8ae-a66d5374b632,EP BUMBOGO,-2.0752,29.8874,cellular_tower,-2.0337,29.8486,8021.0,6.3154
123,3f65c4df-07dd-3f3c-b8ae-a66d5374b632,EP BUMBOGO,-2.0752,29.8874,cellular_tower,-2.0273,29.8568,5314.0,6.3191
124,40b39619-7817-32d9-b914-41ad1c4a5eaf,EP KIBIMBA,-1.9975,30.6675,EVDSL,-1.9849,30.6206,,5.3924
125,40b39619-7817-32d9-b914-41ad1c4a5eaf,EP KIBIMBA,-1.9975,30.6675,FTTC,-1.9557,30.7535,,10.6252
126,40b39619-7817-32d9-b914-41ad1c4a5eaf,EP KIBIMBA,-1.9975,30.6675,cellular_tower,-2.0267,30.5653,1000.0,11.8121
127,40b39619-7817-32d9-b914-41ad1c4a5eaf,EP KIBIMBA,-1.9975,30.6675,cellular_tower,-2.0266,30.5652,1000.0,11.8197
128,40b39619-7817-32d9-b914-41ad1c4a5eaf,EP KIBIMBA,-1.9975,30.6675,cellular_tower,-2.0266,30.5652,1000.0,11.8197
129,40b39619-7817-32d9-b914-41ad1c4a5eaf,EP KIBIMBA,-1.9975,30.6675,cellular_tower,-2.028,30.5652,1000.0,11.8633
130,40b39619-7817-32d9-b914-41ad1c4a5eaf,EP KIBIMBA,-1.9975,30.6675,cellular_tower,-2.0109,30.561,1826.0,11.9284
131,41349bab-3681-342b-8e17-3e85c366b947,EP INGANJI,-2.2126,30.3197,EVDSL,-2.3122,30.3017,,11.2525
132,41349bab-3681-342b-8e17-3e85c366b947,EP INGANJI,-2.2126,30.3197,cellular_tower,-2.2496,30.2136,1000.0,12.4883
133,41349bab-3681-342b-8e17-3e85c366b947,EP INGANJI,-2.2126,30.3197,cellular_tower,-2.2459,30.2099,1000.0,12.7516
134,41349bab-3681-342b-8e17-3e85c366b947,EP INGANJI,-2.2126,30.3197,cellular_tower,-2.2467,30.21,1000.0,12.7671
135,41349bab-3681-342b-8e17-3e85c366b947,EP INGANJI,-2.2126,30.3197,cellular_tower,-2.2433,30.2074,1000.0,12.9383
136,41349bab-3681-342b-8e17-3e85c366b947,EP INGANJI,-2.2126,30.3197,cellular_tower,-2.245,30.205,3251.0,13.2459
137,42440bb3-5965-36a1-b3b8-6b80e1517779,EP NYAGAHINGA,-1.9035,30.409,EVDSL,-1.8361,30.3404,,10.6889
138,42440bb3-5965-36a1-b3b8-6b80e1517779,EP NYAGAHINGA,-1.9035,30.409,cellular_tower,-1.9074,30.4004,14131.0,1.0517
139,42440bb3-5965-36a1-b3b8-6b80e1517779,EP NYAGAHINGA,-1.9035,30.409,cellular_tower,-1.9007,30.4205,10692.0,1.3135
140,42440bb3-5965-36a1-b3b8-6b80e1517779,EP NYAGAHINGA,-1.9035,30.409,cellular_tower,-1.8988,30.394,23187.0,1.7479
141,42440bb3-5965-36a1-b3b8-6b80e1517779,EP NYAGAHINGA,-1.9035,30.409,cellular_tower,-1.9223,30.4089,14913.0,2.0925
142,42440bb3-5965-36a1-b3b8-6b80e1517779,EP NYAGAHINGA,-1.9035,30.409,cellular_tower,-1.8942,30.4273,10969.0,2.2793
143,429a5b51-5839-39af-84e0-f09039f2b0aa,EP KARAMA,-1.9819,30.1522,EVDSL,-2.0894,30.1204,,12.4595
144,429a5b51-5839-39af-84e0-f09039f2b0aa,EP KARAMA,-1.9819,30.1522,FTTH,-2.1114,30.1695,,14.5218
145,429a5b51-5839-39af-84e0-f09039f2b0aa,EP KARAMA,-1.9819,30.1522,cellular_tower,-1.9778,30.1585,1000.0,0.833
146,429a5b51-5839-39af-84e0-f09039f2b0aa,EP KARAMA,-1.9819,30.1522,cellular_tower,-1.9734,30.1503,4898.0,0.9693
147,429a5b51-5839-39af-84e0-f09039f2b0aa,EP KARAMA,-1.9819,30.1522,cellular_tower,-1.975,30.1468,1000.0,0.9761
148,429a5b51-5839-39af-84e0-f09039f2b0aa,EP KARAMA,-1.9819,30.1522,cellular_tower,-1.9762,30.1596,1000.0,1.036
149,429a5b51-5839-39af-84e0-f09039f2b0aa,EP KARAMA,-1.9819,30.1522,cellular_tower,-1.9775,30.1624,1000.0,1.2319
150,43c6b52d-bb0c-36e0-a1ad-cb052d685c7d,GIHORORO PS,-2.126,29.82,FTTH,-2.1349,29.8361,,2.0391
151,43c6b52d-bb0c-36e0-a1ad-cb052d685c7d,GIHORORO PS,-2.126,29.82,FTTH,-2.0112,29.7667,,14.0672
152,43c6b52d-bb0c-36e0-a1ad-cb052d685c7d,GIHORORO PS,-2.126,29.82,FTTH,-1.9977,29.8567,,14.8389
153,43c6b52d-bb0c-36e0-a1ad-cb052d685c7d,GIHORORO PS,-2.126,29.82,cellular_tower,-2.1085,29.7694,8114.0,5.9498
154,43c6b52d-bb0c-36e0-a1ad-cb052d685c7d,GIHORORO PS,-2.126,29.82,cellular_tower,-2.0808,29.7826,1000.0,6.5216
155,43c6b52d-bb0c-36e0-a1ad-cb052d685c7d,GIHORORO PS,-2.126,29.82,cellular_tower,-2.0808,29.7825,1000.0,6.5287
156,43c6b52d-bb0c-36e0-a1ad-cb052d685c7d,GIHORORO PS,-2.126,29.82,cellular_tower,-2.0807,29.7824,1000.0,6.5444
157,43c6b52d-bb0c-36e0-a1ad-cb052d685c7d,GIHORORO PS,-2.126,29.82,cellular_tower,-2.0806,29.7823,1000.0,6.56
158,44e03612-0962-3a75-acac-e8e788738384,EP  BIRIMA,-2.0504,29.6141,ADSL,-1.9625,29.5358,,13.0813
159,44e03612-0962-3a75-acac-e8e788738384,EP  BIRIMA,-2.0504,29.6141,FTTC,-2.1705,29.5848,,13.7462
160,44e03612-0962-3a75-acac-e8e788738384,EP  BIRIMA,-2.0504,29.6141,cellular_tower,-2.0546,29.6072,1000.0,0.8977
161,44e03612-0962-3a75-acac-e8e788738384,EP  BIRIMA,-2.0504,29.6141,cellular_tower,-2.0567,29.6084,1000.0,0.9454
162,44e03612-0962-3a75-acac-e8e788738384,EP  BIRIMA,-2.0504,29.6141,cellular_tower,-2.0612,29.6051,1989.0,1.564
163,44e03612-0962-3a75-acac-e8e788738384,EP  BIRIMA,-2.0504,29.6141,cellular_tower,-2.0677,29.6099,5701.0,1.9822
164,44e03612-0962-3a75-acac-e8e788738384,EP  BIRIMA,-2.0504,29.6141,cellular_tower,-2.0597,29.5945,2245.0,2.4105
165,45c3bba9-0466-3613-9bf4-80079bbedb03,EP RUSAGARA,-2.1824,30.0981,EVDSL,-2.2442,30.0976,,6.8728
166,45c3bba9-0466-3613-9bf4-80079bbedb03,EP RUSAGARA,-2.1824,30.0981,EVDSL,-2.0894,30.1204,,10.6401
167,45c3bba9-0466-3613-9bf4-80079bbedb03,EP RUSAGARA,-2.1824,30.0981,FTTH,-2.1114,30.1695,,11.193
168,45c3bba9-0466-3613-9bf4-80079bbedb03,EP RUSAGARA,-2.1824,30.0981,FTTC,-2.2571,30.0208,,11.9475
169,45c3bba9-0466-3613-9bf4-80079bbedb03,EP RUSAGARA,-2.1824,30.0981,cellular_tower,-2.1737,30.1006,4672.0,1.0067
170,45c3bba9-0466-3613-9bf4-80079bbedb03,EP RUSAGARA,-2.1824,30.0981,cellular_tower,-2.1756,30.1068,3688.0,1.2263
171,45c3bba9-0466-3613-9bf4-80079bbedb03,EP RUSAGARA,-2.1824,30.0981,cellular_tower,-2.1714,30.1032,1116.0,1.348
172,45c3bba9-0466-3613-9bf4-80079bbedb03,EP RUSAGARA,-2.1824,30.0981,cellular_tower,-2.1709,30.1028,1000.0,1.3813
173,45c3bba9-0466-3613-9bf4-80079bbedb03,EP RUSAGARA,-2.1824,30.0981,cellular_tower,-2.1709,30.1028,1000.0,1.3813
174,469e4984-a018-37b3-8802-b0d41e1ca57f,GS NYABIKIRI-NGARAMA,-1.6044,30.4,ADSL,-1.7227,30.4191,,13.3166
175,469e4984-a018-37b3-8802-b0d41e1ca57f,GS NYABIKIRI-NGARAMA,-1.6044,30.4,cellular_tower,-1.611,30.3975,23693.0,0.7806
176,469e4984-a018-37b3-8802-b0d41e1ca57f,GS NYABIKIRI-NGARAMA,-1.6044,30.4,cellular_tower,-1.6098,30.393,24707.0,0.9801
177,469e4984-a018-37b3-8802-b0d41e1ca57f,GS NYABIKIRI-NGARAMA,-1.6044,30.4,cellular_tower,-1.6053,30.3905,23001.0,1.0602
178,469e4984-a018-37b3-8802-b0d41e1ca57f,GS NYABIKIRI-NGARAMA,-1.6044,30.4,cellular_tower,-1.6033,30.3905,22258.0,1.0635
179,469e4984-a018-37b3-8802-b0d41e1ca57f,GS NYABIKIRI-NGARAMA,-1.6044,30.4,cellular_tower,-1.6008,30.3906,4181.0,1.1204
180,46a5ccaa-7b5d-3c7a-b61c-a219b374e6b2,EP MAGUMIRA,-2.4799,29.5062,EVDSL,-2.4705,29.5177,,1.644
181,46a5ccaa-7b5d-3c7a-b61c-a219b374e6b2,EP MAGUMIRA,-2.4799,29.5062,EVDSL,-2.5006,29.5734,,7.816
182,46a5ccaa-7b5d-3c7a-b61c-a219b374e6b2,EP MAGUMIRA,-2.4799,29.5062,EVDSL,-2.5327,29.4246,,10.8041
183,46a5ccaa-7b5d-3c7a-b61c-a219b374e6b2,EP MAGUMIRA,-2.4799,29.5062,EVDSL,-2.4009,29.4098,,13.8552
184,46a5ccaa-7b5d-3c7a-b61c-a219b374e6b2,EP MAGUMIRA,-2.4799,29.5062,cellular_tower,-2.4912,29.5113,1000.0,1.3814
185,46a5ccaa-7b5d-3c7a-b61c-a219b374e6b2,EP MAGUMIRA,-2.4799,29.5062,cellular_tower,-2.4847,29.5186,1000.0,1.4773
186,46a5ccaa-7b5d-3c7a-b61c-a219b374e6b2,EP MAGUMIRA,-2.4799,29.5062,cellular_tower,-2.4892,29.5164,2959.0,1.5357
187,46a5ccaa-7b5d-3c7a-b61c-a219b374e6b2,EP MAGUMIRA,-2.4799,29.5062,cellular_tower,-2.4922,29.5139,2527.0,1.6158
188,46a5ccaa-7b5d-3c7a-b61c-a219b374e6b2,EP MAGUMIRA,-2.4799,29.5062,cellular_tower,-2.4906,29.5162,4591.0,1.6297
189,46b44a6c-2fd2-379b-bab2-f90ca965cf50,EP NYAMUGARI,-2.792,29.7205,FTTH,-2.7961,29.7044,,1.8462
190,46b44a6c-2fd2-379b-bab2-f90ca965cf50,EP NYAMUGARI,-2.792,29.7205,EVDSL,-2.7612,29.7391,,4.0064
191,46b44a6c-2fd2-379b-bab2-f90ca965cf50,EP NYAMUGARI,-2.792,29.7205,FTTC,-2.8158,29.7542,,4.5761
192,46b44a6c-2fd2-379b-bab2-f90ca965cf50,EP NYAMUGARI,-2.792,29.7205,EVDSL,-2.8538,29.6066,,14.3986
193,46b44a6c-2fd2-379b-bab2-f90ca965cf50,EP NYAMUGARI,-2.792,29.7205,EVDSL,-2.6687,29.6748,,14.629
194,46b44a6c-2fd2-379b-bab2-f90ca965cf50,EP NYAMUGARI,-2.792,29.7205,cellular_tower,-2.624,29.7319,3047.0,18.7279
195,46b44a6c-2fd2-379b-bab2-f90ca965cf50,EP NYAMUGARI,-2.792,29.7205,cellular_tower,-2.6207,29.725,3690.0,19.0586
196,46b44a6c-2fd2-379b-bab2-f90ca965cf50,EP NYAMUGARI,-2.792,29.7205,cellular_tower,-2.5915,29.7092,1000.0,22.3345
197,46b44a6c-2fd2-379b-bab2-f90ca965cf50,EP NYAMUGARI,-2.792,29.7205,cellular_tower,-2.5915,29.7092,1000.0,22.3345
198,46b44a6c-2fd2-379b-bab2-f90ca965cf50,EP NYAMUGARI,-2.792,29.7205,cellular_tower,-2.5915,29.7092,1000.0,22.3345
199,46b806c7-9736-3b83-aa4a-ddcf5f3ef35c,E P MURAMBI,-2.3729,29.1531,FTTC,-2.4008,29.1733,,3.83
200,46b806c7-9736-3b83-aa4a-ddcf5f3ef35c,E P MURAMBI,-2.3729,29.1531,ADSL,-2.287,29.1669,,9.6804
201,46b806c7-9736-3b83-aa4a-ddcf5f3ef35c,E P MURAMBI,-2.3729,29.1531,FTTH,-2.3438,29.2427,,10.4706
202,46b806c7-9736-3b83-aa4a-ddcf5f3ef35c,E P MURAMBI,-2.3729,29.1531,EVDSL,-2.4781,29.1371,,11.828
203,46b806c7-9736-3b83-aa4a-ddcf5f3ef35c,E P MURAMBI,-2.3729,29.1531,cellular_tower,-2.3286,29.1386,1000.0,5.1841
204,46b806c7-9736-3b83-aa4a-ddcf5f3ef35c,E P MURAMBI,-2.3729,29.1531,cellular_tower,-2.3284,29.1388,1000.0,5.1984
205,46b806c7-9736-3b83-aa4a-ddcf5f3ef35c,E P MURAMBI,-2.3729,29.1531,cellular_tower,-2.3346,29.1259,1532.0,5.2225
206,46b806c7-9736-3b83-aa4a-ddcf5f3ef35c,E P MURAMBI,-2.3729,29.1531,cellular_tower,-2.3253,29.138,1000.0,5.5538
207,46b806c7-9736-3b83-aa4a-ddcf5f3ef35c,E P MURAMBI,-2.3729,29.1531,cellular_tower,-2.3253,29.138,1000.0,5.5538
208,46fd3ec2-2121-3cbf-9249-719cf5a5bfb0,EP NKAMBA,-1.9778,30.4814,cellular_tower,-1.9635,30.5001,12055.0,2.6142
209,46fd3ec2-2121-3cbf-9249-719cf5a5bfb0,EP NKAMBA,-1.9778,30.4814,cellular_tower,-1.9667,30.5029,8199.0,2.6863
210,46fd3ec2-2121-3cbf-9249-719cf5a5bfb0,EP NKAMBA,-1.9778,30.4814,cellular_tower,-1.9596,30.5207,11123.0,4.8104
211,46fd3ec2-2121-3cbf-9249-719cf5a5bfb0,EP NKAMBA,-1.9778,30.4814,cellular_tower,-1.9341,30.4835,4907.0,4.8655
212,46fd3ec2-2121-3cbf-9249-719cf5a5bfb0,EP NKAMBA,-1.9778,30.4814,cellular_tower,-1.9329,30.4875,10905.0,5.0388
213,481771d6-97f6-39d3-90c8-6635152cb702,EP GURIRO,-1.741,29.5374,ADSL,-1.7524,29.4441,,10.4444
214,481771d6-97f6-39d3-90c8-6635152cb702,EP GURIRO,-1.741,29.5374,FTTC,-1.6156,29.5198,,14.0849
215,481771d6-97f6-39d3-90c8-6635152cb702,EP GURIRO,-1.741,29.5374,ADSL,-1.8669,29.5588,,14.198
216,481771d6-97f6-39d3-90c8-6635152cb702,EP GURIRO,-1.741,29.5374,cellular_tower,-1.6219,29.489,1000.0,14.2966
217,481771d6-97f6-39d3-90c8-6635152cb702,EP GURIRO,-1.741,29.5374,cellular_tower,-1.6204,29.4922,1353.0,14.3226
218,481771d6-97f6-39d3-90c8-6635152cb702,EP GURIRO,-1.741,29.5374,cellular_tower,-1.6204,29.4914,1000.0,14.3541
219,481771d6-97f6-39d3-90c8-6635152cb702,EP GURIRO,-1.741,29.5374,cellular_tower,-1.6199,29.4921,2048.0,14.3786
220,481771d6-97f6-39d3-90c8-6635152cb702,EP GURIRO,-1.741,29.5374,cellular_tower,-1.6189,29.4944,1615.0,14.3959
221,48624ace-e98d-3256-940d-f187b4643421,EP INDATWA,-2.3954,30.5635,EVDSL,-2.3584,30.5621,,4.1131
222,48624ace-e98d-3256-940d-f187b4643421,EP INDATWA,-2.3954,30.5635,ADSL,-2.3178,30.6477,,12.727
223,48624ace-e98d-3256-940d-f187b4643421,EP INDATWA,-2.3954,30.5635,ADSL,-2.3581,30.4389,,14.4501
224,48624ace-e98d-3256-940d-f187b4643421,EP INDATWA,-2.3954,30.5635,cellular_tower,-2.2836,30.5775,1000.0,12.5266
225,48624ace-e98d-3256-940d-f187b4643421,EP INDATWA,-2.3954,30.5635,cellular_tower,-2.2826,30.5765,2257.0,12.6237
226,48624ace-e98d-3256-940d-f187b4643421,EP INDATWA,-2.3954,30.5635,cellular_tower,-2.282,30.5724,2695.0,12.646
227,48624ace-e98d-3256-940d-f187b4643421,EP INDATWA,-2.3954,30.5635,cellular_tower,-2.281,30.5637,1562.0,12.7182
228,48624ace-e98d-3256-940d-f187b4643421,EP INDATWA,-2.3954,30.5635,cellular_tower,-2.282,30.5786,1000.0,12.7187
229,4a257e38-5c53-3c0f-bebc-6d8442aba297,G.S KARAMBI,-2.5109,28.8908,FTTH,-2.4822,29.0043,,12.9996
230,4a257e38-5c53-3c0f-bebc-6d8442aba297,G.S KARAMBI,-2.5109,28.8908,cellular_tower,-2.5108,28.8882,2519.0,0.2918
231,4a257e38-5c53-3c0f-bebc-6d8442aba297,G.S KARAMBI,-2.5109,28.8908,cellular_tower,-2.5107,28.8936,3204.0,0.3089
232,4a257e38-5c53-3c0f-bebc-6d8442aba297,G.S KARAMBI,-2.5109,28.8908,cellular_tower,-2.5067,28.8906,3169.0,0.4662
233,4a257e38-5c53-3c0f-bebc-6d8442aba297,G.S KARAMBI,-2.5109,28.8908,cellular_tower,-2.5132,28.8946,3077.0,0.4919
234,4a257e38-5c53-3c0f-bebc-6d8442aba297,G.S KARAMBI,-2.5109,28.8908,cellular_tower,-2.5181,28.8931,3583.0,0.8409
235,4adccd9d-3b8a-395d-9d7f-d048d530d051,GS RWAHI,-1.859,29.927,cellular_tower,-1.8461,29.9568,1000.0,3.6092
236,4adccd9d-3b8a-395d-9d7f-d048d530d051,GS RWAHI,-1.859,29.927,cellular_tower,-1.8461,29.9568,1000.0,3.6092
237,4adccd9d-3b8a-395d-9d7f-d048d530d051,GS RWAHI,-1.859,29.927,cellular_tower,-1.8446,29.9564,1000.0,3.6387
238,4adccd9d-3b8a-395d-9d7f-d048d530d051,GS RWAHI,-1.859,29.927,cellular_tower,-1.8399,29.9538,1546.0,3.6581
239,4adccd9d-3b8a-395d-9d7f-d048d530d051,GS RWAHI,-1.859,29.927,cellular_tower,-1.8412,29.9549,1000.0,3.6786
240,4bb1d523-3b5e-3c2e-996b-7c567fce3f50,KAMISEKE PS,-1.5056,30.2069,ADSL,-1.5028,30.2116,,0.6041
241,4bb1d523-3b5e-3c2e-996b-7c567fce3f50,KAMISEKE PS,-1.5056,30.2069,cellular_tower,-1.6258,30.2193,1000.0,13.4409
242,4bb1d523-3b5e-3c2e-996b-7c567fce3f50,KAMISEKE PS,-1.5056,30.2069,cellular_tower,-1.6258,30.2193,1000.0,13.4409
243,4bb1d523-3b5e-3c2e-996b-7c567fce3f50,KAMISEKE PS,-1.5056,30.2069,cellular_tower,-1.6427,30.2088,1000.0,15.2511
244,4bb1d523-3b5e-3c2e-996b-7c567fce3f50,KAMISEKE PS,-1.5056,30.2069,cellular_tower,-1.6427,30.2088,1000.0,15.2511
245,4bb1d523-3b5e-3c2e-996b-7c567fce3f50,KAMISEKE PS,-1.5056,30.2069,cellular_tower,-1.6201,30.2868,13917.0,15.5246
246,4be32ab8-ce9f-3f32-8cbf-7b2500f7298d,GS GITARAGA,-1.9271,30.1887,EVDSL,-1.7946,30.1761,,14.8048
247,4be32ab8-ce9f-3f32-8cbf-7b2500f7298d,GS GITARAGA,-1.9271,30.1887,cellular_tower,-1.9443,30.1648,1000.0,3.2685
248,4be32ab8-ce9f-3f32-8cbf-7b2500f7298d,GS GITARAGA,-1.9271,30.1887,cellular_tower,-1.9549,30.1988,6962.0,3.2882
249,4be32ab8-ce9f-3f32-8cbf-7b2500f7298d,GS GITARAGA,-1.9271,30.1887,cellular_tower,-1.9435,30.1634,1000.0,3.3467
250,4be32ab8-ce9f-3f32-8cbf-7b2500f7298d,GS GITARAGA,-1.9271,30.1887,cellular_tower,-1.9435,30.1634,1000.0,3.3467
251,4be32ab8-ce9f-3f32-8cbf-7b2500f7298d,GS GITARAGA,-1.9271,30.1887,cellular_tower,-1.9532,30.1721,6046.0,3.435
252,4cc68004-c01d-3bde-907d-7283b57ecfcb,EP KANZA,-1.5508,29.649,ADSL,-1.544,29.7467,,10.8927
253,4cc68004-c01d-3bde-907d-7283b57ecfcb,EP KANZA,-1.5508,29.649,cellular_tower,-1.5441,29.6717,1000.0,2.6324
254,4cc68004-c01d-3bde-907d-7283b57ecfcb,EP KANZA,-1.5508,29.649,cellular_tower,-1.5441,29.6717,1000.0,2.6324
255,4cc68004-c01d-3bde-907d-7283b57ecfcb,EP KANZA,-1.5508,29.649,cellular_tower,-1.5354,29.6672,1320.0,2.6509
256,4cc68004-c01d-3bde-907d-7283b57ecfcb,EP KANZA,-1.5508,29.649,cellular_tower,-1.5342,29.6677,8655.0,2.7802
257,4cc68004-c01d-3bde-907d-7283b57ecfcb,EP KANZA,-1.5508,29.649,cellular_tower,-1.5328,29.667,3404.0,2.8302
258,4d85a0b7-c5a7-35da-b021-b8bc0f374a43,EP RUBONA,-2.1784,30.325,,,,,15.0968
259,4d85a0b7-c5a7-35da-b021-b8bc0f374a43,EP RUBONA,-2.1784,30.325,cellular_tower,-2.2066,30.1997,6694.0,14.2714
260,4d85a0b7-c5a7-35da-b021-b8bc0f374a43,EP RUBONA,-2.1784,30.325,cellular_tower,-2.2177,30.2005,8350.0,14.5075
261,4d85a0b7-c5a7-35da-b021-b8bc0f374a43,EP RUBONA,-2.1784,30.325,cellular_tower,-2.2496,30.2136,1000.0,14.6933
262,4d85a0b7-c5a7-35da-b021-b8bc0f374a43,EP RUBONA,-2.1784,30.325,cellular_tower,-2.2459,30.2099,1000.0,14.8289
263,4d85a0b7-c5a7-35da-b021-b8bc0f374a43,EP RUBONA,-2.1784,30.325,cellular_tower,-2.2467,30.21,1000.0,14.8645
264,4dd36197-5164-3f67-85b1-65bd53080c3b,EP GITEGA,-1.8472,29.7301,ADSL,-1.8859,29.6355,,11.3637
265,4dd36197-5164-3f67-85b1-65bd53080c3b,EP GITEGA,-1.8472,29.7301,cellular_tower,-1.7454,29.8958,12351.0,21.6134
266,4dd36197-5164-3f67-85b1-65bd53080c3b,EP GITEGA,-1.8472,29.7301,cellular_tower,-1.7841,29.9194,16382.0,22.1738
267,4dd36197-5164-3f67-85b1-65bd53080c3b,EP GITEGA,-1.8472,29.7301,cellular_tower,-1.7397,29.9,12962.0,22.345
268,4dd36197-5164-3f67-85b1-65bd53080c3b,EP GITEGA,-1.8472,29.7301,cellular_tower,-1.8001,29.9315,1000.0,22.9837
269,4dd36197-5164-3f67-85b1-65bd53080c3b,EP GITEGA,-1.8472,29.7301,cellular_tower,-1.8004,29.9321,1000.0,23.0411
270,4f17f07f-dd7b-3838-a10f-ca70384119f2,EP KAMARASHAVU,-2.0488,30.6606,EVDSL,-1.9849,30.6206,,8.3745
271,4f17f07f-dd7b-3838-a10f-ca70384119f2,EP KAMARASHAVU,-2.0488,30.6606,FTTH,-2.1496,30.6925,,11.7592
272,4f17f07f-dd7b-3838-a10f-ca70384119f2,EP KAMARASHAVU,-2.0488,30.6606,FTTH,-2.1773,30.6838,,14.5244
273,4f17f07f-dd7b-3838-a10f-ca70384119f2,EP KAMARASHAVU,-2.0488,30.6606,FTTC,-1.9557,30.7535,,14.6194
274,4f17f07f-dd7b-3838-a10f-ca70384119f2,EP KAMARASHAVU,-2.0488,30.6606,cellular_tower,-2.0505,30.5639,1000.0,10.7451
275,4f17f07f-dd7b-3838-a10f-ca70384119f2,EP KAMARASHAVU,-2.0488,30.6606,cellular_tower,-2.0574,30.5642,1000.0,10.7528
276,4f17f07f-dd7b-3838-a10f-ca70384119f2,EP KAMARASHAVU,-2.0488,30.6606,cellular_tower,-2.0574,30.5642,1000.0,10.7528
277,4f17f07f-dd7b-3838-a10f-ca70384119f2,EP KAMARASHAVU,-2.0488,30.6606,cellular_tower,-2.0491,30.5638,1000.0,10.7546
278,4f17f07f-dd7b-3838-a10f-ca70384119f2,EP KAMARASHAVU,-2.0488,30.6606,cellular_tower,-2.0493,30.5638,1000.0,10.7547
279,4f3199f5-c484-3323-a1a8-39663e9777a4,EP RUSAMBU,-1.5397,29.5449,FTTC,-1.6156,29.5198,,8.8854
280,4f3199f5-c484-3323-a1a8-39663e9777a4,EP RUSAMBU,-1.5397,29.5449,EVDSL,-1.5339,29.4327,,12.4874
281,4f3199f5-c484-3323-a1a8-39663e9777a4,EP RUSAMBU,-1.5397,29.5449,cellular_tower,-1.5474,29.5567,5311.0,1.5703
282,4f3199f5-c484-3323-a1a8-39663e9777a4,EP RUSAMBU,-1.5397,29.5449,cellular_tower,-1.5483,29.5561,5374.0,1.5736
283,4f3199f5-c484-3323-a1a8-39663e9777a4,EP RUSAMBU,-1.5397,29.5449,cellular_tower,-1.5477,29.5576,1000.0,1.6726
284,4f3199f5-c484-3323-a1a8-39663e9777a4,EP RUSAMBU,-1.5397,29.5449,cellular_tower,-1.5517,29.5542,6930.0,1.6911
285,4f3199f5-c484-3323-a1a8-39663e9777a4,EP RUSAMBU,-1.5397,29.5449,cellular_tower,-1.5479,29.5577,5748.0,1.6939
286,4f87a687-761a-3d7a-ba3d-6db0f15c7e88,EP GITAMBI B,-1.7867,30.119,EVDSL,-1.7946,30.1761,,6.4106
287,4f87a687-761a-3d7a-ba3d-6db0f15c7e88,EP GITAMBI B,-1.7867,30.119,ADSL,-1.7794,30.1878,,7.6855
288,4f87a687-761a-3d7a-ba3d-6db0f15c7e88,EP GITAMBI B,-1.7867,30.119,cellular_tower,-1.7867,30.1242,7359.0,0.5782
289,4f87a687-761a-3d7a-ba3d-6db0f15c7e88,EP GITAMBI B,-1.7867,30.119,cellular_tower,-1.782,30.1244,7736.0,0.7952
290,4f87a687-761a-3d7a-ba3d-6db0f15c7e88,EP GITAMBI B,-1.7867,30.119,cellular_tower,-1.7905,30.1254,3428.0,0.8282
291,4f87a687-761a-3d7a-ba3d-6db0f15c7e88,EP GITAMBI B,-1.7867,30.119,cellular_tower,-1.7909,30.1113,8112.0,0.9753
292,4f87a687-761a-3d7a-ba3d-6db0f15c7e88,EP GITAMBI B,-1.7867,30.119,cellular_tower,-1.7834,30.1276,9126.0,1.0236
293,5064134d-25c6-3b8e-9294-06649e336b03,GS RUBONA,-1.9633,29.6557,ADSL,-1.8859,29.6355,,8.8952
294,5064134d-25c6-3b8e-9294-06649e336b03,GS RUBONA,-1.9633,29.6557,ADSL,-1.9625,29.5358,,13.3307
295,5064134d-25c6-3b8e-9294-06649e336b03,GS RUBONA,-1.9633,29.6557,FTTH,-2.0112,29.7667,,13.4387
296,5064134d-25c6-3b8e-9294-06649e336b03,GS RUBONA,-1.9633,29.6557,cellular_tower,-2.0546,29.6072,1000.0,11.4941
297,5064134d-25c6-3b8e-9294-06649e336b03,GS RUBONA,-1.9633,29.6557,cellular_tower,-2.0567,29.6084,1000.0,11.64
298,5064134d-25c6-3b8e-9294-06649e336b03,GS RUBONA,-1.9633,29.6557,cellular_tower,-2.0612,29.6051,1989.0,12.2525
299,5064134d-25c6-3b8e-9294-06649e336b03,GS RUBONA,-1.9633,29.6557,cellular_tower,-2.0726,29.6411,4177.0,12.2606
300,5064134d-25c6-3b8e-9294-06649e336b03,GS RUBONA,-1.9633,29.6557,cellular_tower,-2.0725,29.6351,5912.0,12.3557
301,52fc7537-cfa0-3be0-bb44-dcba9d3ca0f2,E.P KAGEYO,-1.88,30.6,EVDSL,-1.9849,30.6206,,11.8905
302,52fc7537-cfa0-3be0-bb44-dcba9d3ca0f2,E.P KAGEYO,-1.88,30.6,FTTH,-1.8029,30.6809,,12.4217
303,52fc7537-cfa0-3be0-bb44-dcba9d3ca0f2,E.P KAGEYO,-1.88,30.6,ADSL,-1.8478,30.7183,,13.6297
304,52fc7537-cfa0-3be0-bb44-dcba9d3ca0f2,E.P KAGEYO,-1.88,30.6,cellular_tower,-1.8777,30.5085,1000.0,10.1721
305,52fc7537-cfa0-3be0-bb44-dcba9d3ca0f2,E.P KAGEYO,-1.88,30.6,cellular_tower,-1.8782,30.5084,1000.0,10.182
306,52fc7537-cfa0-3be0-bb44-dcba9d3ca0f2,E.P KAGEYO,-1.88,30.6,cellular_tower,-1.8779,30.5084,1000.0,10.1827
307,52fc7537-cfa0-3be0-bb44-dcba9d3ca0f2,E.P KAGEYO,-1.88,30.6,cellular_tower,-1.878,30.5083,1000.0,10.1936
308,52fc7537-cfa0-3be0-bb44-dcba9d3ca0f2,E.P KAGEYO,-1.88,30.6,cellular_tower,-1.8778,30.5083,1000.0,10.1941
309,5385c580-bdb2-3880-b6b6-46e9f1ec6535,EP KAGUGO,-1.4389,30.0038,,,,,15.2921
310,5385c580-bdb2-3880-b6b6-46e9f1ec6535,EP KAGUGO,-1.4389,30.0038,cellular_tower,-1.4362,30.0142,4315.0,1.191
311,5385c580-bdb2-3880-b6b6-46e9f1ec6535,EP KAGUGO,-1.4389,30.0038,cellular_tower,-1.4292,30.0128,5114.0,1.4687
312,5385c580-bdb2-3880-b6b6-46e9f1ec6535,EP KAGUGO,-1.4389,30.0038,cellular_tower,-1.4277,30.0128,1000.0,1.5952
313,5385c580-bdb2-3880-b6b6-46e9f1ec6535,EP KAGUGO,-1.4389,30.0038,cellular_tower,-1.4279,30.0132,1974.0,1.6064
314,5385c580-bdb2-3880-b6b6-46e9f1ec6535,EP KAGUGO,-1.4389,30.0038,cellular_tower,-1.4278,30.0137,1000.0,1.6513
315,53de11c2-5c32-3d2a-b2a8-64abbd309178,EP BITARE,-2.443,29.0344,FTTH,-2.4822,29.0043,,5.4935
316,53de11c2-5c32-3d2a-b2a8-64abbd309178,EP BITARE,-2.443,29.0344,EVDSL,-2.4781,29.1371,,12.0543
317,53de11c2-5c32-3d2a-b2a8-64abbd309178,EP BITARE,-2.443,29.0344,cellular_tower,-2.44,29.0333,4339.0,0.3557
318,53de11c2-5c32-3d2a-b2a8-64abbd309178,EP BITARE,-2.443,29.0344,cellular_tower,-2.446,29.0399,5692.0,0.6949
319,53de11c2-5c32-3d2a-b2a8-64abbd309178,EP BITARE,-2.443,29.0344,cellular_tower,-2.4409,29.0273,1000.0,0.8239
320,53de11c2-5c32-3d2a-b2a8-64abbd309178,EP BITARE,-2.443,29.0344,cellular_tower,-2.4485,29.0399,1000.0,0.8635
321,53de11c2-5c32-3d2a-b2a8-64abbd309178,EP BITARE,-2.443,29.0344,cellular_tower,-2.4482,29.0418,1000.0,1.0039
322,545465bc-f466-3677-af17-bde56d1c6805,ECD MBUGANGARI,-1.6769,29.2551,cellular_tower,-1.6797,29.2543,5876.0,0.3198
323,545465bc-f466-3677-af17-bde56d1c6805,ECD MBUGANGARI,-1.6769,29.2551,cellular_tower,-1.6808,29.2576,2206.0,0.5154
324,545465bc-f466-3677-af17-bde56d1c6805,ECD MBUGANGARI,-1.6769,29.2551,cellular_tower,-1.6802,29.2516,2810.0,0.5293
325,545465bc-f466-3677-af17-bde56d1c6805,ECD MBUGANGARI,-1.6769,29.2551,cellular_tower,-1.682,29.2554,2491.0,0.5656
326,545465bc-f466-3677-af17-bde56d1c6805,ECD MBUGANGARI,-1.6769,29.2551,cellular_tower,-1.6803,29.2497,1838.0,0.7038
327,54ef0c89-0ad8-3c97-ae38-dd7687ae06e8,EP KAYENZI,-1.7608,30.0666,EVDSL,-1.7946,30.1761,,12.7409
328,54ef0c89-0ad8-3c97-ae38-dd7687ae06e8,EP KAYENZI,-1.7608,30.0666,ADSL,-1.7794,30.1878,,13.6266
329,54ef0c89-0ad8-3c97-ae38-dd7687ae06e8,EP KAYENZI,-1.7608,30.0666,cellular_tower,-1.7969,30.0332,1000.0,5.4631
330,54ef0c89-0ad8-3c97-ae38-dd7687ae06e8,EP KAYENZI,-1.7608,30.0666,cellular_tower,-1.7909,30.1113,8112.0,5.99
331,54ef0c89-0ad8-3c97-ae38-dd7687ae06e8,EP KAYENZI,-1.7608,30.0666,cellular_tower,-1.7681,30.1238,1000.0,6.4107
332,54ef0c89-0ad8-3c97-ae38-dd7687ae06e8,EP KAYENZI,-1.7608,30.0666,cellular_tower,-1.7663,30.1243,6046.0,6.4439
333,54ef0c89-0ad8-3c97-ae38-dd7687ae06e8,EP KAYENZI,-1.7608,30.0666,cellular_tower,-1.7508,30.1242,1576.0,6.5005
334,5699f5f7-fffd-3167-9d4c-c62ecd77d1b0,EP NYARUNAZI,-2.1005,30.0587,EVDSL,-2.0894,30.1204,,6.9681
335,5699f5f7-fffd-3167-9d4c-c62ecd77d1b0,EP NYARUNAZI,-2.1005,30.0587,FTTH,-2.1114,30.1695,,12.3666
336,5699f5f7-fffd-3167-9d4c-c62ecd77d1b0,EP NYARUNAZI,-2.1005,30.0587,cellular_tower,-2.1087,30.0723,1000.0,1.7661
337,5699f5f7-fffd-3167-9d4c-c62ecd77d1b0,EP NYARUNAZI,-2.1005,30.0587,cellular_tower,-2.1087,30.0723,1000.0,1.7661
338,5699f5f7-fffd-3167-9d4c-c62ecd77d1b0,EP NYARUNAZI,-2.1005,30.0587,cellular_tower,-2.1117,30.0705,1000.0,1.8107
339,5699f5f7-fffd-3167-9d4c-c62ecd77d1b0,EP NYARUNAZI,-2.1005,30.0587,cellular_tower,-2.1037,30.0751,1000.0,1.8559
340,5699f5f7-fffd-3167-9d4c-c62ecd77d1b0,EP NYARUNAZI,-2.1005,30.0587,cellular_tower,-2.106,30.0747,1038.0,1.8801
341,57b9f958-e1ef-3df6-a3cf-99283b4e9035,EP  CYAHAFI,-1.923,29.5897,ADSL,-1.8859,29.6355,,6.5495
342,57b9f958-e1ef-3df6-a3cf-99283b4e9035,EP  CYAHAFI,-1.923,29.5897,ADSL,-1.8669,29.5588,,7.1219
343,57b9f958-e1ef-3df6-a3cf-99283b4e9035,EP  CYAHAFI,-1.923,29.5897,ADSL,-1.9625,29.5358,,7.4356
344,57b9f958-e1ef-3df6-a3cf-99283b4e9035,EP  CYAHAFI,-1.923,29.5897,cellular_tower,-2.0546,29.6072,1000.0,14.7623
345,57b9f958-e1ef-3df6-a3cf-99283b4e9035,EP  CYAHAFI,-1.923,29.5897,cellular_tower,-2.0559,29.5863,1000.0,14.7834
346,57b9f958-e1ef-3df6-a3cf-99283b4e9035,EP  CYAHAFI,-1.923,29.5897,cellular_tower,-2.0559,29.5863,1000.0,14.7834
347,57b9f958-e1ef-3df6-a3cf-99283b4e9035,EP  CYAHAFI,-1.923,29.5897,cellular_tower,-2.0563,29.5857,1000.0,14.8297
348,57b9f958-e1ef-3df6-a3cf-99283b4e9035,EP  CYAHAFI,-1.923,29.5897,cellular_tower,-2.0567,29.6084,1000.0,15.0117
349,57bad349-be99-392f-a614-bf623b3d1f31,EP BYENENE,-2.0674,29.9048,FTTH,-1.9977,29.8567,,9.4202
350,57bad349-be99-392f-a614-bf623b3d1f31,EP BYENENE,-2.0674,29.9048,FTTH,-2.1349,29.8361,,10.7079
351,57bad349-be99-392f-a614-bf623b3d1f31,EP BYENENE,-2.0674,29.9048,cellular_tower,-2.0147,29.8811,1000.0,6.4283
352,57bad349-be99-392f-a614-bf623b3d1f31,EP BYENENE,-2.0674,29.9048,cellular_tower,-2.0214,29.8697,4295.0,6.4363
353,57bad349-be99-392f-a614-bf623b3d1f31,EP BYENENE,-2.0674,29.9048,cellular_tower,-2.0165,29.8768,1078.0,6.4625
354,57bad349-be99-392f-a614-bf623b3d1f31,EP BYENENE,-2.0674,29.9048,cellular_tower,-2.0131,29.8837,1000.0,6.4808
355,57bad349-be99-392f-a614-bf623b3d1f31,EP BYENENE,-2.0674,29.9048,cellular_tower,-2.0105,29.892,4063.0,6.4883
